{
"type": "FeatureCollection",
"name": "3-1",
"crs": { "type": "name", "properties": { "name": "urn:ogc:def:crs:OGC:1.3:CRS84" } },
"features": [
{ "type": "Feature", "properties": { "AreaName": "1" }, "geometry": { "type": "Polygon", "coordinates": [ [ [ 115.640389653788219, 39.744106997947213 ], [ 115.640387883144882, 39.744197074536437 ], [ 115.640271199141765, 39.744195707590677 ], [ 115.640269428338641, 39.74428578417411 ], [ 115.640152744191624, 39.744284417106748 ], [ 115.640150973228685, 39.744374493684347 ], [ 115.640034288937784, 39.744373126495404 ], [ 115.640032517815044, 39.744463203067205 ], [ 115.639915833380257, 39.744461835756653 ], [ 115.639799148953472, 39.74446046832886 ], [ 115.639797377519059, 39.744550544890508 ], [ 115.63968069294836, 39.744549177341128 ], [ 115.639671834897641, 39.744999560105576 ], [ 115.64002189091137, 39.745003662467155 ], [ 115.640020119732881, 39.745093739028682 ], [ 115.641070289570564, 39.745106039820946 ], [ 115.641082678086178, 39.744475503585896 ], [ 115.640965993579769, 39.744474137330585 ], [ 115.640967763487737, 39.744384060724059 ], [ 115.640851079141143, 39.744382694355842 ], [ 115.64085284919301, 39.744292617752187 ], [ 115.640736165006231, 39.744291251271072 ], [ 115.640737935201969, 39.744201174670259 ], [ 115.640621251174991, 39.744199808076239 ], [ 115.640623021514628, 39.744109731478325 ], [ 115.640389653788219, 39.744106997947213 ] ] ] } }
]
}
